{{Infobox Planet  
| name=757 Portlandia (1908 EJ)
| image=
| caption=
| discovery=yes 
| physical_characteristics=yes 
| bgcolour=#FFFFC0
| discoverer=[[乔尔·梅特卡夫|乔尔·梅特卡夫]]
| discovery_site=[[汤顿_(马萨诸塞州)|汤顿]]
| discovered=1908年9月30日
| mp_name=757
| alt_names=
| mp_category=[[小行星带|主带小行星]]
| epoch=2456400.5 (2013-Apr-18.0) TDB
| semimajor= 2.373474401360008AU
| perihelion=2.115543568307782AU
| aphelion=2.631405234412234AU
| eccentricity=.1086722624454812
| period=1335.596446798654天<br>3.66年
| inclination=8.166485446110535°
| asc_node=22.55126806759777°	
| arg_peri=43.88538654538265°
| mean_anomaly=170.3311927449819°
 | dimensions=
 | mean_radius=16.045千米
 | rotation=6.5837小时
 | spectral_type=XF
 | abs_magnitude=10.20
 | albedo=0.1427
}}
'''小行星757'''（757 Portlandia (1908 EJ)），是[[乔尔·梅特卡夫|乔尔·梅特卡夫]]于1908年9月30日在美国[[马萨诸塞州|马萨诸塞州]][[汤顿_(马萨诸塞州)|汤顿]]发现的[[小行星带|主带小行星]]<ref>{{JPL Small Body|name=757}}</ref>。

== 参考资料==
{{Reflist}}

{{Minor Planet Number|[[小行星756|小行星756]]|[[小行星758|小行星758]]}}
{{beltasteroid-stub}}

[[Category:小行星带天体|Category:小行星带天体]]
[[Category:1908年发现的小行星|Category:1908年发现的小行星]]
[[Category:以地名命名的小行星|Category:以地名命名的小行星]]